{
  "type": "FeatureCollection",
  "features": [
    {
      "type": "Feature",
      "properties": {
        "norad_id": 43602,
        "name": "BEIDOU-3 M12 (C26)",
        "group": "beidou",
        "lat": -35.93698309525987,
        "lon": 155.40787525943347,
        "alt_km": 21531.824083260923,
        "timestamp": "2025-12-23T18:59:32.233850+00:00",
        "meta_object_name": "BEIDOU-3 M12 (C26)",
        "meta_object_id": "2018-067A",
        "meta_epoch": "2025-12-22T18:52:41.106432",
        "meta_mean_motion": 1.86227882,
        "meta_eccentricity": 0.0009247,
        "meta_inclination": 54.1835,
        "meta_ra_of_asc_node": 187.0221,
        "meta_arg_of_pericenter": 41.599,
        "meta_mean_anomaly": 318.5103,
        "meta_ephemeris_type": 0,
        "meta_classification_type": "U",
        "meta_norad_cat_id": 43602,
        "meta_element_set_no": 999,
        "meta_rev_at_epoch": 4983,
        "meta_bstar": 0,
        "meta_mean_motion_dot": 9.5e-07,
        "meta_mean_motion_ddot": 0,
        "tle_line1": "1 43602U 18067A   25356.78658688  .00000095  00000+0  00000+0 0  9996",
        "tle_line2": "2 43602  54.1835 187.0221 0009247  41.5990 318.5103  1.86227882 49833"
      },
      "geometry": {
        "type": "Point",
        "coordinates": [
          155.40787525943347,
          -35.93698309525987
        ]
      }
    },
    {
      "type": "Feature",
      "properties": {
        "norad_id": 43603,
        "name": "BEIDOU-3 M11 (C25)",
        "group": "beidou",
        "lat": -33.92245155117444,
        "lon": 36.03156752536225,
        "alt_km": 21548.28004400588,
        "timestamp": "2025-12-23T18:59:32.233860+00:00",
        "meta_object_name": "BEIDOU-3 M11 (C25)",
        "meta_object_id": "2018-067B",
        "meta_epoch": "2025-12-21T20:19:59.001024",
        "meta_mean_motion": 1.86227373,
        "meta_eccentricity": 0.00056493,
        "meta_inclination": 54.1806,
        "meta_ra_of_asc_node": 187.018,
        "meta_arg_of_pericenter": 37.4949,
        "meta_mean_anomaly": 322.5886,
        "meta_ephemeris_type": 0,
        "meta_classification_type": "U",
        "meta_norad_cat_id": 43603,
        "meta_element_set_no": 999,
        "meta_rev_at_epoch": 4984,
        "meta_bstar": 0,
        "meta_mean_motion_dot": 9.4e-07,
        "meta_mean_motion_ddot": 0,
        "tle_line1": "1 43603U 18067B   25355.84721066  .00000094  00000+0  00000+0 0  9993",
        "tle_line2": "2 43603  54.1806 187.0180 0005649  37.4949 322.5886  1.86227373 49845"
      },
      "geometry": {
        "type": "Point",
        "coordinates": [
          36.03156752536225,
          -33.92245155117444
        ]
      }
    },
    {
      "type": "Feature",
      "properties": {
        "norad_id": 43622,
        "name": "BEIDOU-3 M13 (C32)",
        "group": "beidou",
        "lat": -52.684592776948925,
        "lon": -51.203375388063506,
        "alt_km": 21521.147936151894,
        "timestamp": "2025-12-23T18:59:32.233869+00:00",
        "meta_object_name": "BEIDOU-3 M13 (C32)",
        "meta_object_id": "2018-072A",
        "meta_epoch": "2025-12-22T08:10:31.412640",
        "meta_mean_motion": 1.86231166,
        "meta_eccentricity": 0.00064111,
        "meta_inclination": 56.4667,
        "meta_ra_of_asc_node": 68.5024,
        "meta_arg_of_pericenter": 297.4685,
        "meta_mean_anomaly": 62.5173,
        "meta_ephemeris_type": 0,
        "meta_classification_type": "U",
        "meta_norad_cat_id": 43622,
        "meta_element_set_no": 999,
        "meta_rev_at_epoch": 4936,
        "meta_bstar": 0,
        "meta_mean_motion_dot": -2.9e-07,
        "meta_mean_motion_ddot": 0,
        "tle_line1": "1 43622U 18072A   25356.34064135 -.00000029  00000+0  00000+0 0  9992",
        "tle_line2": "2 43622  56.4667  68.5024 0006411 297.4685  62.5173  1.86231166 49361"
      },
      "geometry": {
        "type": "Point",
        "coordinates": [
          -51.203375388063506,
          -52.684592776948925
        ]
      }
    },
    {
      "type": "Feature",
      "properties": {
        "norad_id": 43623,
        "name": "BEIDOU-3 M14 (C33)",
        "group": "beidou",
        "lat": -14.269574898720187,
        "lon": 58.77167306502757,
        "alt_km": 21520.50666245318,
        "timestamp": "2025-12-23T18:59:32.233879+00:00",
        "meta_object_name": "BEIDOU-3 M14 (C33)",
        "meta_object_id": "2018-072B",
        "meta_epoch": "2025-12-23T06:43:13.861056",
        "meta_mean_motion": 1.86231163,
        "meta_eccentricity": 0.00035931,
        "meta_inclination": 56.4696,
        "meta_ra_of_asc_node": 68.4654,
        "meta_arg_of_pericenter": 327.0772,
        "meta_mean_anomaly": 32.9541,
        "meta_ephemeris_type": 0,
        "meta_classification_type": "U",
        "meta_norad_cat_id": 43623,
        "meta_element_set_no": 999,
        "meta_rev_at_epoch": 4937,
        "meta_bstar": 0,
        "meta_mean_motion_dot": -2.6e-07,
        "meta_mean_motion_ddot": 0,
        "tle_line1": "1 43623U 18072B   25357.28002154 -.00000026  00000+0  00000+0 0  9997",
        "tle_line2": "2 43623  56.4696  68.4654 0003593 327.0772  32.9541  1.86231163 49375"
      },
      "geometry": {
        "type": "Point",
        "coordinates": [
          58.77167306502757,
          -14.269574898720187
        ]
      }
    },
    {
      "type": "Feature",
      "properties": {
        "norad_id": 43647,
        "name": "BEIDOU-3 M16 (C35)",
        "group": "beidou",
        "lat": -42.97688336606683,
        "lon": 168.21495626189292,
        "alt_km": 21549.45032279792,
        "timestamp": "2025-12-23T18:59:32.233889+00:00",
        "meta_object_name": "BEIDOU-3 M16 (C35)",
        "meta_object_id": "2018-078A",
        "meta_epoch": "2025-12-22T21:37:04.499328",
        "meta_mean_motion": 1.86232328,
        "meta_eccentricity": 0.00074196,
        "meta_inclination": 54.2525,
        "meta_ra_of_asc_node": 306.1662,
        "meta_arg_of_pericenter": 20.3198,
        "meta_mean_anomaly": 339.7131,
        "meta_ephemeris_type": 0,
        "meta_classification_type": "U",
        "meta_norad_cat_id": 43647,
        "meta_element_set_no": 999,
        "meta_rev_at_epoch": 4887,
        "meta_bstar": 0,
        "meta_mean_motion_dot": -5.5e-07,
        "meta_mean_motion_ddot": 0,
        "tle_line1": "1 43647U 18078A   25356.90074652 -.00000055  00000+0  00000+0 0  9991",
        "tle_line2": "2 43647  54.2525 306.1662 0007419  20.3198 339.7131  1.86232328 48876"
      },
      "geometry": {
        "type": "Point",
        "coordinates": [
          168.21495626189292,
          -42.97688336606683
        ]
      }
    },
    {
      "type": "Feature",
      "properties": {
        "norad_id": 43648,
        "name": "BEIDOU-3 M15 (C34)",
        "group": "beidou",
        "lat": 23.509229383216866,
        "lon": 107.87460137560007,
        "alt_km": 21532.46569200213,
        "timestamp": "2025-12-23T18:59:32.233899+00:00",
        "meta_object_name": "BEIDOU-3 M15 (C34)",
        "meta_object_id": "2018-078B",
        "meta_epoch": "2025-12-23T00:43:09.285312",
        "meta_mean_motion": 1.86232355,
        "meta_eccentricity": 0.00040598,
        "meta_inclination": 54.2483,
        "meta_ra_of_asc_node": 306.1625,
        "meta_arg_of_pericenter": 19.7636,
        "meta_mean_anomaly": 340.2561,
        "meta_ephemeris_type": 0,
        "meta_classification_type": "U",
        "meta_norad_cat_id": 43648,
        "meta_element_set_no": 999,
        "meta_rev_at_epoch": 4889,
        "meta_bstar": 0,
        "meta_mean_motion_dot": -5.4e-07,
        "meta_mean_motion_ddot": 0,
        "tle_line1": "1 43648U 18078B   25357.02996858 -.00000054  00000+0  00000+0 0  9996",
        "tle_line2": "2 43648  54.2483 306.1625 0004059  19.7636 340.2561  1.86232355 48891"
      },
      "geometry": {
        "type": "Point",
        "coordinates": [
          107.87460137560007,
          23.509229383216866
        ]
      }
    },
    {
      "type": "Feature",
      "properties": {
        "norad_id": 43683,
        "name": "BEIDOU-3 G1 (C59)",
        "group": "beidou",
        "lat": 2.166435868653403,
        "lon": 157.40628420161684,
        "alt_km": 35780.938810396445,
        "timestamp": "2025-12-23T18:59:32.233909+00:00",
        "meta_object_name": "BEIDOU-3 G1 (C59)",
        "meta_object_id": "2018-085A",
        "meta_epoch": "2025-12-23T06:56:59.375904",
        "meta_mean_motion": 1.00267378,
        "meta_eccentricity": 0.00014878,
        "meta_inclination": 2.6327,
        "meta_ra_of_asc_node": 102.6553,
        "meta_arg_of_pericenter": 44.3592,
        "meta_mean_anomaly": 189.2969,
        "meta_ephemeris_type": 0,
        "meta_classification_type": "U",
        "meta_norad_cat_id": 43683,
        "meta_element_set_no": 999,
        "meta_rev_at_epoch": 2629,
        "meta_bstar": 0,
        "meta_mean_motion_dot": -2.59e-06,
        "meta_mean_motion_ddot": 0,
        "tle_line1": "1 43683U 18085A   25357.28957611 -.00000259  00000+0  00000+0 0  9992",
        "tle_line2": "2 43683   2.6327 102.6553 0001487  44.3592 189.2969  1.00267378 26292"
      },
      "geometry": {
        "type": "Point",
        "coordinates": [
          157.40628420161684,
          2.166435868653403
        ]
      }
    }
  ]
}